start=new Date('2021-10-19T00:00:00.000Z').valueOf();
sats=[{"PERIOD":"95.592","SEMIMAJOR_AXIS":"6925.353","EPOCH":"2021-10-18T21:12:12.935520","BSTAR":"0.00014067000000","COUNTRY_CODE":"US","LAUNCH_DATE":"2020-03-18","CENTER_NAME":"EARTH","MEAN_ELEMENT_THEORY":"SGP4","RA_OF_ASC_NODE":"161.8933","PERIAPSIS":"546.052","SITE":"AFETR","FILE":"3170620","ECCENTRICITY":"0.00016840","GP_ID":"187535185","MEAN_MOTION_DDOT":"0.0000000000000","MEAN_MOTION_DOT":"0.00001814","OBJECT_NAME":"STARLINK-1262","OBJECT_TYPE":"PAYLOAD","MEAN_MOTION":"15.06398563","REF_FRAME":"TEME","EPHEMERIS_TYPE":"0","CLASSIFICATION_TYPE":"U","NORAD_CAT_ID":"45366","ELEMENT_SET_NO":"999","TIME_SYSTEM":"UTC","MEAN_ANOMALY":"289.8649","ARG_OF_PERICENTER":"70.2521","REV_AT_EPOCH":"8815","OBJECT_ID":"2020-019G","RCS_SIZE":"LARGE","DECAY_DATE":null,"INCLINATION":"53.0534","APOAPSIS":"548.384","TLE_LINE1":"1 45366U 20019G   21291.88348305  .00001814  00000-0  14067-3 0  9995","TLE_LINE2":"2 45366  53.0534 161.8933 0001684  70.2521 289.8649 15.06398563 88157"},{"MEAN_MOTION_DDOT":"0.0000000000000","MEAN_MOTION_DOT":"0.00001972","ECCENTRICITY":"0.00018310","GP_ID":"187535436","FILE":"3170620","SITE":"AFETR","REF_FRAME":"TEME","EPHEMERIS_TYPE":"0","MEAN_MOTION":"15.06416564","OBJECT_TYPE":"PAYLOAD","OBJECT_NAME":"STARLINK-1273","COUNTRY_CODE":"US","BSTAR":"0.00015119000000","EPOCH":"2021-10-18T21:44:01.710240","SEMIMAJOR_AXIS":"6925.298","PERIOD":"95.591","RA_OF_ASC_NODE":"161.8054","PERIAPSIS":"545.895","MEAN_ELEMENT_THEORY":"SGP4","CENTER_NAME":"EARTH","LAUNCH_DATE":"2020-03-18","INCLINATION":"53.0542","DECAY_DATE":null,"RCS_SIZE":"LARGE","OBJECT_ID":"2020-019H","REV_AT_EPOCH":"8815","TLE_LINE2":"2 45367  53.0542 161.8054 0001831  71.6159 288.5029 15.06416564 88157","TLE_LINE1":"1 45367U 20019H   21291.90557535  .00001972  00000-0  15119-3 0  9990","APOAPSIS":"548.431","NORAD_CAT_ID":"45367","CLASSIFICATION_TYPE":"U","ARG_OF_PERICENTER":"71.6159","MEAN_ANOMALY":"288.5029","TIME_SYSTEM":"UTC","ELEMENT_SET_NO":"999"},{"OBJECT_NAME":"STARLINK-1276","OBJECT_TYPE":"PAYLOAD","MEAN_MOTION":"15.06396073","REF_FRAME":"TEME","EPHEMERIS_TYPE":"0","SITE":"AFETR","FILE":"3170620","GP_ID":"187534184","ECCENTRICITY":"0.00019310","MEAN_MOTION_DDOT":"0.0000000000000","MEAN_MOTION_DOT":"-0.00000606","LAUNCH_DATE":"2020-03-18","CENTER_NAME":"EARTH","MEAN_ELEMENT_THEORY":"SGP4","PERIAPSIS":"545.888","RA_OF_ASC_NODE":"161.9337","PERIOD":"95.592","SEMIMAJOR_AXIS":"6925.361","EPOCH":"2021-10-18T21:01:34.291776","BSTAR":"-0.00002179000000","COUNTRY_CODE":"US","APOAPSIS":"548.563","TLE_LINE1":"1 45368U 20019J   21291.87609134 -.00000606  00000-0 -21790-4 0  9998","TLE_LINE2":"2 45368  53.0523 161.9337 0001931  71.1266 288.9932 15.06396073 88156","OBJECT_ID":"2020-019J","REV_AT_EPOCH":"8815","RCS_SIZE":"LARGE","DECAY_DATE":null,"INCLINATION":"53.0523","ELEMENT_SET_NO":"999","TIME_SYSTEM":"UTC","ARG_OF_PERICENTER":"71.1266","MEAN_ANOMALY":"288.9932","CLASSIFICATION_TYPE":"U","NORAD_CAT_ID":"45368"},{"LAUNCH_DATE":"2020-03-18","CENTER_NAME":"EARTH","MEAN_ELEMENT_THEORY":"SGP4","PERIAPSIS":"545.864","RA_OF_ASC_NODE":"161.9379","PERIOD":"95.592","SEMIMAJOR_AXIS":"6925.362","EPOCH":"2021-10-18T21:00:12.973824","BSTAR":"0.00001273800000","COUNTRY_CODE":"US","OBJECT_NAME":"STARLINK-1277","OBJECT_TYPE":"PAYLOAD","MEAN_MOTION":"15.06395530","REF_FRAME":"TEME","EPHEMERIS_TYPE":"0","SITE":"AFETR","FILE":"3170620","ECCENTRICITY":"0.00019680","GP_ID":"187534434","MEAN_MOTION_DDOT":"0.0000000000000","MEAN_MOTION_DOT":"-0.00000092","ELEMENT_SET_NO":"999","TIME_SYSTEM":"UTC","MEAN_ANOMALY":"280.3526","ARG_OF_PERICENTER":"79.7685","CLASSIFICATION_TYPE":"U","NORAD_CAT_ID":"45369","APOAPSIS":"548.590","TLE_LINE1":"1 45369U 20019K   21291.87515016 -.00000092  00000-0  12738-4 0  9994","TLE_LINE2":"2 45369  53.0545 161.9379 0001968  79.7685 280.3526 15.06395530 88158","OBJECT_ID":"2020-019K","REV_AT_EPOCH":"8815","RCS_SIZE":"LARGE","DECAY_DATE":null,"INCLINATION":"53.0545"},{"OBJECT_NAME":"STARLINK-1281","OBJECT_TYPE":"PAYLOAD","MEAN_MOTION":"15.06402772","EPHEMERIS_TYPE":"0","REF_FRAME":"TEME","SITE":"AFETR","FILE":"3170620","ECCENTRICITY":"0.00019190","GP_ID":"187535685","MEAN_MOTION_DDOT":"0.0000000000000","MEAN_MOTION_DOT":"0.00001414","LAUNCH_DATE":"2020-03-18","CENTER_NAME":"EARTH","MEAN_ELEMENT_THEORY":"SGP4","PERIAPSIS":"545.876","RA_OF_ASC_NODE":"161.9747","PERIOD":"95.592","SEMIMAJOR_AXIS":"6925.340","EPOCH":"2021-10-18T20:45:38.765664","BSTAR":"0.00011379000000","COUNTRY_CODE":"US","APOAPSIS":"548.534","TLE_LINE1":"1 45370U 20019L   21291.86503201  .00001414  00000-0  11379-3 0  9995","TLE_LINE2":"2 45370  53.0525 161.9747 0001919  75.5720 284.5481 15.06402772 88150","OBJECT_ID":"2020-019L","REV_AT_EPOCH":"8815","RCS_SIZE":"LARGE","DECAY_DATE":null,"INCLINATION":"53.0525","ELEMENT_SET_NO":"999","TIME_SYSTEM":"UTC","ARG_OF_PERICENTER":"75.5720","MEAN_ANOMALY":"284.5481","CLASSIFICATION_TYPE":"U","NORAD_CAT_ID":"45370"},{"TIME_SYSTEM":"UTC","ELEMENT_SET_NO":"999","ARG_OF_PERICENTER":"71.4160","MEAN_ANOMALY":"288.7039","CLASSIFICATION_TYPE":"U","NORAD_CAT_ID":"45371","APOAPSIS":"548.557","TLE_LINE1":"1 45371U 20019M   21291.89454296  .00001902  00000-0  14654-3 0  9999","TLE_LINE2":"2 45371  53.0523 161.8505 0001933  71.4160 288.7039 15.06398580 88155","OBJECT_ID":"2020-019M","REV_AT_EPOCH":"8815","RCS_SIZE":"LARGE","DECAY_DATE":null,"INCLINATION":"53.0523","LAUNCH_DATE":"2020-03-18","CENTER_NAME":"EARTH","MEAN_ELEMENT_THEORY":"SGP4","PERIAPSIS":"545.879","RA_OF_ASC_NODE":"161.8505","PERIOD":"95.592","SEMIMAJOR_AXIS":"6925.353","EPOCH":"2021-10-18T21:28:08.511744","BSTAR":"0.00014654000000","COUNTRY_CODE":"US","OBJECT_NAME":"STARLINK-1287","OBJECT_TYPE":"PAYLOAD","MEAN_MOTION":"15.06398580","REF_FRAME":"TEME","EPHEMERIS_TYPE":"0","SITE":"AFETR","FILE":"3170620","ECCENTRICITY":"0.00019330","GP_ID":"187535936","MEAN_MOTION_DOT":"0.00001902","MEAN_MOTION_DDOT":"0.0000000000000"},{"MEAN_ANOMALY":"284.6773","ARG_OF_PERICENTER":"75.4411","TIME_SYSTEM":"UTC","ELEMENT_SET_NO":"999","NORAD_CAT_ID":"45372","CLASSIFICATION_TYPE":"U","TLE_LINE2":"2 45372  53.0540 161.7875 0001759  75.4411 284.6773 15.06405943 88155","TLE_LINE1":"1 45372U 20019N   21291.90926598 -.00000177  00000-0  70285-5 0  9999","APOAPSIS":"548.414","INCLINATION":"53.0540","DECAY_DATE":null,"RCS_SIZE":"LARGE","REV_AT_EPOCH":"8815","OBJECT_ID":"2020-019N","RA_OF_ASC_NODE":"161.7875","PERIAPSIS":"545.977","MEAN_ELEMENT_THEORY":"SGP4","CENTER_NAME":"EARTH","LAUNCH_DATE":"2020-03-18","COUNTRY_CODE":"US","BSTAR":"0.00000702850000","EPOCH":"2021-10-18T21:49:20.580672","PERIOD":"95.592","SEMIMAJOR_AXIS":"6925.330","REF_FRAME":"TEME","EPHEMERIS_TYPE":"0","MEAN_MOTION":"15.06405943","OBJECT_TYPE":"PAYLOAD","OBJECT_NAME":"STARLINK-1288","MEAN_MOTION_DDOT":"0.0000000000000","MEAN_MOTION_DOT":"-0.00000177","ECCENTRICITY":"0.00017590","GP_ID":"187534684","FILE":"3170620","SITE":"AFETR"},{"MEAN_ELEMENT_THEORY":"SGP4","PERIAPSIS":"545.952","RA_OF_ASC_NODE":"161.8700","LAUNCH_DATE":"2020-03-18","CENTER_NAME":"EARTH","BSTAR":"0.00005717700000","EPOCH":"2021-10-18T21:22:48.425664","COUNTRY_CODE":"US","PERIOD":"95.592","SEMIMAJOR_AXIS":"6925.360","MEAN_MOTION":"15.06396219","REF_FRAME":"TEME","EPHEMERIS_TYPE":"0","OBJECT_NAME":"STARLINK-1295","OBJECT_TYPE":"PAYLOAD","ECCENTRICITY":"0.00018380","GP_ID":"187534934","MEAN_MOTION_DDOT":"0.0000000000000","MEAN_MOTION_DOT":"0.00000570","SITE":"AFETR","FILE":"3170620","MEAN_ANOMALY":"280.9048","ARG_OF_PERICENTER":"79.2148","TIME_SYSTEM":"UTC","ELEMENT_SET_NO":"999","NORAD_CAT_ID":"45373","CLASSIFICATION_TYPE":"U","TLE_LINE1":"1 45373U 20019P   21291.89083826  .00000570  00000-0  57177-4 0  9996","TLE_LINE2":"2 45373  53.0531 161.8700 0001838  79.2148 280.9048 15.06396219 88150","APOAPSIS":"548.498","RCS_SIZE":"LARGE","DECAY_DATE":null,"INCLINATION":"53.0531","OBJECT_ID":"2020-019P","REV_AT_EPOCH":"8815"},{"FILE":"3170620","SITE":"AFETR","MEAN_MOTION_DDOT":"0.0000000000000","MEAN_MOTION_DOT":"-0.00000047","ECCENTRICITY":"0.00017870","GP_ID":"187535186","OBJECT_TYPE":"PAYLOAD","OBJECT_NAME":"STARLINK-1300","EPHEMERIS_TYPE":"0","REF_FRAME":"TEME","MEAN_MOTION":"15.06402761","PERIOD":"95.592","SEMIMAJOR_AXIS":"6925.340","BSTAR":"0.00001577600000","EPOCH":"2021-10-18T21:17:30.166080","COUNTRY_CODE":"US","LAUNCH_DATE":"2020-03-18","CENTER_NAME":"EARTH","PERIAPSIS":"545.968","RA_OF_ASC_NODE":"161.8874","MEAN_ELEMENT_THEORY":"SGP4","REV_AT_EPOCH":"8815","OBJECT_ID":"2020-019Q","DECAY_DATE":null,"INCLINATION":"53.0533","RCS_SIZE":"LARGE","APOAPSIS":"548.443","TLE_LINE1":"1 45374U 20019Q   21291.88715470 -.00000047  00000-0  15776-4 0  9992","TLE_LINE2":"2 45374  53.0533 161.8874 0001787  66.3991 293.7186 15.06402761 88156","CLASSIFICATION_TYPE":"U","NORAD_CAT_ID":"45374","ELEMENT_SET_NO":"999","TIME_SYSTEM":"UTC","MEAN_ANOMALY":"293.7186","ARG_OF_PERICENTER":"66.3991"},{"REV_AT_EPOCH":"8815","OBJECT_ID":"2020-019R","RCS_SIZE":"LARGE","DECAY_DATE":null,"INCLINATION":"53.0543","APOAPSIS":"548.477","TLE_LINE1":"1 45375U 20019R   21291.90189972 -.00000301  00000-0 -12731-5 0  9991","TLE_LINE2":"2 45375  53.0543 161.8208 0001862  71.4716 288.6475 15.06408396 88159","CLASSIFICATION_TYPE":"U","NORAD_CAT_ID":"45375","TIME_SYSTEM":"UTC","ELEMENT_SET_NO":"999","ARG_OF_PERICENTER":"71.4716","MEAN_ANOMALY":"288.6475","SITE":"AFETR","FILE":"3170620","ECCENTRICITY":"0.00018620","GP_ID":"187535437","MEAN_MOTION_DDOT":"0.0000000000000","MEAN_MOTION_DOT":"-0.00000301","OBJECT_NAME":"STARLINK-1302","OBJECT_TYPE":"PAYLOAD","MEAN_MOTION":"15.06408396","EPHEMERIS_TYPE":"0","REF_FRAME":"TEME","PERIOD":"95.592","SEMIMAJOR_AXIS":"6925.323","EPOCH":"2021-10-18T21:38:44.135808","BSTAR":"-0.00000127310000","COUNTRY_CODE":"US","LAUNCH_DATE":"2020-03-18","CENTER_NAME":"EARTH","MEAN_ELEMENT_THEORY":"SGP4","PERIAPSIS":"545.898","RA_OF_ASC_NODE":"161.8208"}];
